{
  "norad_id": 68904,
  "name": "STARLINK-37528",
  "history": [
    {
      "epoch": "2026-05-04T18:00:02.000160Z",
      "apogee_km": 279.49256638640964,
      "perigee_km": 277.5541468905567,
      "latitude_deg": -54.310239724232154,
      "longitude_deg": -3.1622144543961865,
      "height_km": 300.4265800174101,
      "semi_major_axis_km": 6656.660356638483,
      "eccentricity": 0.0001456,
      "inclination_deg": 97.2868,
      "raan_deg": 319.6766,
      "arg_perigee_deg": 94.9896,
      "mean_anomaly_deg": 139.7066,
      "mean_motion_rev_day": 15.98520331
    }
  ]
}