{"generatedAt":"2026-05-05T08:19:47.084492Z","satellites":[{"name":"STARLINK-37528","tle1":"1 68904U 26097K   26124.75002315 -.02210185  14180-2 -47930-2 0  9991","tle2":"2 68904  97.2868 319.6766 0001456  94.9896 139.7066 15.98520331  1941"}]}